{"type": "FeatureCollection", "features": [ {"type": "Feature", "properties": {"norad_id": 34014, "name": "COSMOS 2251 DEB", "group": "cosmos-2251-debris", "lat": 36.81175783840165, "lon": -95.31436081113519, "alt_km": 621.5469281192654, "timestamp": "2025-12-27T07:26:25.614006+00:00", "meta": {"OBJECT_NAME": "COSMOS 2251 DEB", "OBJECT_ID": "1993-036GZ", "EPOCH": "2025-12-26T23:10:58.944864", "MEAN_MOTION": 14.73307389, "ECCENTRICITY": 0.00376605, "INCLINATION": 74.0163, "RA_OF_ASC_NODE": 252.9695, "ARG_OF_PERICENTER": 28.7083, "MEAN_ANOMALY": 345.7568, "EPHEMERIS_TYPE": 0, "CLASSIFICATION_TYPE": "U", "NORAD_CAT_ID": 34014, "ELEMENT_SET_NO": 999, "REV_AT_EPOCH": 89513, "BSTAR": 0.0010815892, "MEAN_MOTION_DOT": 7.05e-05, "MEAN_MOTION_DDOT": 0}, "tle": {"line1": "1 34014U 93036GZ  25360.96596001  .00007050  00000+0  10816-2 0  9994", "line2": "2 34014  74.0163 252.9695 0037660  28.7083 345.7568 14.73307389895132"}}, "geometry": {"type": "Point", "coordinates": [-95.31436081113519, 36.81175783840165]}}, {"type": "Feature", "properties": {"norad_id": 34015, "name": "COSMOS 2251 DEB", "group": "cosmos-2251-debris", "lat": -18.906706233293328, "lon": -42.78195581569884, "alt_km": 683.5979233129656, "timestamp": "2025-12-27T07:26:25.614016+00:00", "meta": {"OBJECT_NAME": "COSMOS 2251 DEB", "OBJECT_ID": "1993-036HA", "EPOCH": "2025-12-26T17:52:28.889184", "MEAN_MOTION": 14.6041601, "ECCENTRICITY": 0.00208183, "INCLINATION": 74.0242, "RA_OF_ASC_NODE": 132.6667, "ARG_OF_PERICENTER": 229.246, "MEAN_ANOMALY": 239.9192, "EPHEMERIS_TYPE": 0, "CLASSIFICATION_TYPE": "U", "NORAD_CAT_ID": 34015, "ELEMENT_SET_NO": 999, "REV_AT_EPOCH": 88735, "BSTAR": 0.0011893125, "MEAN_MOTION_DOT": 5.752e-05, "MEAN_MOTION_DDOT": 0}, "tle": {"line1": "1 34015U 93036HA  25360.74477881  .00005752  00000+0  11893-2 0  9998", "line2": "2 34015  74.0242 132.6667 0020818 229.2460 239.9192 14.60416010887358"}}, "geometry": {"type": "Point", "coordinates": [-42.78195581569884, -18.906706233293328]}}, {"type": "Feature", "properties": {"norad_id": 34018, "name": "COSMOS 2251 DEB", "group": "cosmos-2251-debris", "lat": 27.697316739469947, "lon": -121.32781136178507, "alt_km": 832.6166959052161, "timestamp": "2025-12-27T07:26:25.614027+00:00", "meta": {"OBJECT_NAME": "COSMOS 2251 DEB", "OBJECT_ID": "1993-036HD", "EPOCH": "2025-12-26T22:53:37.177728", "MEAN_MOTION": 13.81087407, "ECCENTRICITY": 0.0263046, "INCLINATION": 73.8779, "RA_OF_ASC_NODE": 68.0086, "ARG_OF_PERICENTER": 101.157, "MEAN_ANOMALY": 77.6046, "EPHEMERIS_TYPE": 0, "CLASSIFICATION_TYPE": "U", "NORAD_CAT_ID": 34018, "ELEMENT_SET_NO": 999, "REV_AT_EPOCH": 84853, "BSTAR": 0.00037690722, "MEAN_MOTION_DOT": 4.96e-06, "MEAN_MOTION_DDOT": 0}, "tle": {"line1": "1 34018U 93036HD  25360.95390252  .00000496  00000+0  37691-3 0  9995", "line2": "2 34018  73.8779  68.0086 0263046 101.1570  77.6046 13.81087407848530"}}, "geometry": {"type": "Point", "coordinates": [-121.32781136178507, 27.697316739469947]}}, {"type": "Feature", "properties": {"norad_id": 34019, "name": "COSMOS 2251 DEB", "group": "cosmos-2251-debris", "lat": 14.375458748297602, "lon": -160.28697803957806, "alt_km": 743.8260874401794, "timestamp": "2025-12-27T07:26:25.614037+00:00", "meta": {"OBJECT_NAME": "COSMOS 2251 DEB", "OBJECT_ID": "1993-036HE", "EPOCH": "2025-12-26T19:46:46.104672", "MEAN_MOTION": 14.33997962, "ECCENTRICITY": 0.00620583, "INCLINATION": 73.9543, "RA_OF_ASC_NODE": 24.8363, "ARG_OF_PERICENTER": 203.884, "MEAN_ANOMALY": 334.1979, "EPHEMERIS_TYPE": 0, "CLASSIFICATION_TYPE": "U", "NORAD_CAT_ID": 34019, "ELEMENT_SET_NO": 999, "REV_AT_EPOCH": 87722, "BSTAR": 0.00073714067, "MEAN_MOTION_DOT": 2.077e-05, "MEAN_MOTION_DDOT": 0}, "tle": {"line1": "1 34019U 93036HE  25360.82414473  .00002077  00000+0  73714-3 0  9997", "line2": "2 34019  73.9543  24.8363 0062058 203.8840 334.1979 14.33997962877227"}}, "geometry": {"type": "Point", "coordinates": [-160.28697803957806, 14.375458748297602]}}, {"type": "Feature", "properties": {"norad_id": 34021, "name": "COSMOS 2251 DEB", "group": "cosmos-2251-debris", "lat": 22.143503588359938, "lon": 109.16063419603948, "alt_km": 736.0820613509277, "timestamp": "2025-12-27T07:26:25.614047+00:00", "meta": {"OBJECT_NAME": "COSMOS 2251 DEB", "OBJECT_ID": "1993-036HG", "EPOCH": "2025-12-26T17:01:37.110720", "MEAN_MOTION": 14.49998222, "ECCENTRICITY": 0.00209645, "INCLINATION": 74.0362, "RA_OF_ASC_NODE": 103.5985, "ARG_OF_PERICENTER": 246.3926, "MEAN_ANOMALY": 242.9803, "EPHEMERIS_TYPE": 0, "CLASSIFICATION_TYPE": "U", "NORAD_CAT_ID": 34021, "ELEMENT_SET_NO": 999, "REV_AT_EPOCH": 88832, "BSTAR": 0.00051295243, "MEAN_MOTION_DOT": 1.965e-05, "MEAN_MOTION_DDOT": 0}, "tle": {"line1": "1 34021U 93036HG  25360.70945730  .00001965  00000+0  51295-3 0  9997", "line2": "2 34021  74.0362 103.5985 0020964 246.3926 242.9803 14.49998222888325"}}, "geometry": {"type": "Point", "coordinates": [109.16063419603948, 22.143503588359938]}}, {"type": "Feature", "properties": {"norad_id": 34022, "name": "COSMOS 2251 DEB", "group": "cosmos-2251-debris", "lat": -16.44475408171186, "lon": -120.89271319691122, "alt_km": 753.0550075586143, "timestamp": "2025-12-27T07:26:25.614058+00:00", "meta": {"OBJECT_NAME": "COSMOS 2251 DEB", "OBJECT_ID": "1993-036HH", "EPOCH": "2025-12-26T23:16:40.008000", "MEAN_MOTION": 14.38983468, "ECCENTRICITY": 0.00231067, "INCLINATION": 74.0533, "RA_OF_ASC_NODE": 244.575, "ARG_OF_PERICENTER": 307.2718, "MEAN_ANOMALY": 74.3806, "EPHEMERIS_TYPE": 0, "CLASSIFICATION_TYPE": "U", "NORAD_CAT_ID": 34022, "ELEMENT_SET_NO": 999, "REV_AT_EPOCH": 88400, "BSTAR": 0.00022860548, "MEAN_MOTION_DOT": 6.81e-06, "MEAN_MOTION_DDOT": 0}, "tle": {"line1": "1 34022U 93036HH  25360.96990750  .00000681  00000+0  22861-3 0  9999", "line2": "2 34022  74.0533 244.5750 0023106 307.2718  74.3806 14.38983468884004"}}, "geometry": {"type": "Point", "coordinates": [-120.89271319691122, -16.44475408171186]}}, {"type": "Feature", "properties": {"norad_id": 34023, "name": "COSMOS 2251 DEB", "group": "cosmos-2251-debris", "lat": -13.228924692795694, "lon": -139.08268801356624, "alt_km": 748.7618538206461, "timestamp": "2025-12-27T07:26:25.614068+00:00", "meta": {"OBJECT_NAME": "COSMOS 2251 DEB", "OBJECT_ID": "1993-036HJ", "EPOCH": "2025-12-26T21:35:02.635584", "MEAN_MOTION": 14.40588126, "ECCENTRICITY": 0.00189558, "INCLINATION": 74.0235, "RA_OF_ASC_NODE": 225.5388, "ARG_OF_PERICENTER": 319.2916, "MEAN_ANOMALY": 57.961, "EPHEMERIS_TYPE": 0, "CLASSIFICATION_TYPE": "U", "NORAD_CAT_ID": 34023, "ELEMENT_SET_NO": 999, "REV_AT_EPOCH": 88418, "BSTAR": 0.00029900483, "MEAN_MOTION_DOT": 9.28e-06, "MEAN_MOTION_DDOT": 0}, "tle": {"line1": "1 34023U 93036HJ  25360.89933606  .00000928  00000+0  29900-3 0  9994", "line2": "2 34023  74.0235 225.5388 0018955 319.2916  57.9610 14.40588126884183"}}, "geometry": {"type": "Point", "coordinates": [-139.08268801356624, -13.228924692795694]}}, {"type": "Feature", "properties": {"norad_id": 34024, "name": "COSMOS 2251 DEB", "group": "cosmos-2251-debris", "lat": 73.25907702422688, "lon": 1.2693759922819845, "alt_km": 771.0304384074088, "timestamp": "2025-12-27T07:26:25.614078+00:00", "meta": {"OBJECT_NAME": "COSMOS 2251 DEB", "OBJECT_ID": "1993-036HK", "EPOCH": "2025-12-26T23:04:09.592032", "MEAN_MOTION": 14.35412451, "ECCENTRICITY": 0.0021644, "INCLINATION": 74.0471, "RA_OF_ASC_NODE": 289.9272, "ARG_OF_PERICENTER": 337.8003, "MEAN_ANOMALY": 105.1847, "EPHEMERIS_TYPE": 0, "CLASSIFICATION_TYPE": "U", "NORAD_CAT_ID": 34024, "ELEMENT_SET_NO": 999, "REV_AT_EPOCH": 88228, "BSTAR": 0.00022276706, "MEAN_MOTION_DOT": 6.15e-06, "MEAN_MOTION_DDOT": 0}, "tle": {"line1": "1 34024U 93036HK  25360.96122213  .00000615  00000+0  22277-3 0  9990", "line2": "2 34024  74.0471 289.9272 0021644 337.8003 105.1847 14.35412451882282"}}, "geometry": {"type": "Point", "coordinates": [1.2693759922819845, 73.25907702422688]}}, {"type": "Feature", "properties": {"norad_id": 34026, "name": "COSMOS 2251 DEB", "group": "cosmos-2251-debris", "lat": -72.25518581155579, "lon": -161.38233590828537, "alt_km": 978.2105104700768, "timestamp": "2025-12-27T07:26:25.614088+00:00", "meta": {"OBJECT_NAME": "COSMOS 2251 DEB", "OBJECT_ID": "1993-036HM", "EPOCH": "2025-12-26T21:43:09.008832", "MEAN_MOTION": 13.65325625, "ECCENTRICITY": 0.03494473, "INCLINATION": 73.7668, "RA_OF_ASC_NODE": 313.7297, "ARG_OF_PERICENTER": 181.5544, "MEAN_ANOMALY": 247.0656, "EPHEMERIS_TYPE": 0, "CLASSIFICATION_TYPE": "U", "NORAD_CAT_ID": 34026, "ELEMENT_SET_NO": 999, "REV_AT_EPOCH": 83725, "BSTAR": 0.00051139604, "MEAN_MOTION_DOT": 6.08e-06, "MEAN_MOTION_DDOT": 0}, "tle": {"line1": "1 34026U 93036HM  25360.90496538  .00000608  00000+0  51140-3 0  9993", "line2": "2 34026  73.7668 313.7297 0349447 181.5544 247.0656 13.65325625837258"}}, "geometry": {"type": "Point", "coordinates": [-161.38233590828537, -72.25518581155579]}}, {"type": "Feature", "properties": {"norad_id": 34028, "name": "COSMOS 2251 DEB", "group": "cosmos-2251-debris", "lat": 73.8011730680895, "lon": 60.537273178624616, "alt_km": 768.1513528354753, "timestamp": "2025-12-27T07:26:25.614098+00:00", "meta": {"OBJECT_NAME": "COSMOS 2251 DEB", "OBJECT_ID": "1993-036HP", "EPOCH": "2025-12-27T00:05:11.391648", "MEAN_MOTION": 13.20635621, "ECCENTRICITY": 0.05434748, "INCLINATION": 73.884, "RA_OF_ASC_NODE": 325.3819, "ARG_OF_PERICENTER": 100.7745, "MEAN_ANOMALY": 335.4315, "EPHEMERIS_TYPE": 0, "CLASSIFICATION_TYPE": "U", "NORAD_CAT_ID": 34028, "ELEMENT_SET_NO": 999, "REV_AT_EPOCH": 81196, "BSTAR": 0.00067046397, "MEAN_MOTION_DOT": 5.75e-06, "MEAN_MOTION_DDOT": 0}, "tle": {"line1": "1 34028U 93036HP  25361.00360407  .00000575  00000+0  67046-3 0  9997", "line2": "2 34028  73.8840 325.3819 0543474 100.7745 335.4315 13.20635621811969"}}, "geometry": {"type": "Point", "coordinates": [60.537273178624616, 73.8011730680895]}}]}